#dP2019  1 17  0  0  0.00000000      96 __u+U ITR00 FIT  IAC
## 2036 345600.00000000   900.00000000 58500 0.0000000000000
+   93   C01C02C03C04C05C06C07C08C09C10C11C12C13C14E01E02E03
+        E04E05E07E08E09E11E12E13E14E15E18E19E21E24E25E26E27
+        E30E31E33E36G01G02G03G04G05G06G07G08G09G10G11G12G13
+        G14G15G16G17G18G19G20G21G22G23G24G25G26G27G28G29G30
+        G31G32R01R02R03R04R05R07R08R09R10R11R13R14R15R16R17
+        R18R19R20R21R22R23R24R26  0  0  0  0  0  0  0  0  0
++        12 12 13 13 12  8  8  8  8  8  8  8  8  8  6  5  5
++         5  5  6  6  5  5  5  7  6  7  6  5  6  5  5  6  6
++         5  6  7  6  4  4  4  8  4  3  4  3  3  3  3  4  4
++         4  4  3  3  4  3  4  4  4  3  4  4  4  3  3  4  3
++         3  4  6  6  6  5  5  5  6  5  5  5  6  6  6  5  6
++         5  5  5  5  5  6  6  8  0  0  0  0  0  0  0  0  0
%c M  cc GPS ccc cccc cccc cccc cccc ccccc ccccc ccccc ccccc
%c cc cc ccc ccc cccc cccc cccc cccc ccccc ccccc ccccc ccccc
%f  0.0000000  0.000000000  0.00000000000  0.000000000000000
%f  0.0000000  0.000000000  0.00000000000  0.000000000000000
%i    0    0    0    0      0      0      0      0         0
%i    0    0    0    0      0      0      0      0         0
/*                                                          
/*   RSA / INFORMATION & ANALYSIS CENTER (IAC) OF MCC       
/*   ULTRA-RAPID DETERMINATION                              
/* PCV:IGS14_2035 OL/AL:FES2004  NONE     YN ORB:CoN CLK:CoN
*  2019 01 17  8 45  0.00000000
PC01 -32329.504306  27090.046369    201.155967     98.726071
PC02   4337.211612  41900.628991  -1071.943547   -251.204951
PC03 -14762.594546  39462.341251   -226.469779   -103.400244
PC04 -39671.052509  14359.726355    -25.100066   -210.764456
PC05  21918.616319  35981.026670  -1161.480149    -71.010008
PC06 -19936.866680  36907.680544   1849.131428    284.270157
PC07  -8039.605273  29301.710298  29526.680126    195.753729
PC08 -19342.202837  19705.912000 -31866.760667     91.062061
PC09 -10703.653622  37542.732436  15670.212986    456.399846
PC10   5081.338044  36556.208570  20861.552209   -414.849486
PC11 -24808.989391  11575.003665   5646.113282    -96.201716
PC12 -11958.667712 -10396.590316  23049.351610    352.033492
PC13  -5675.713238  23260.701783 -34678.600493   -489.451640
PC14 -16076.554048  -3418.090780 -22503.117551    745.717340
PE01  23090.289520  13067.658421 -13119.458682   -522.571044
PE02 -23097.348097 -13039.620683  13154.839205     43.680149
PE03 -16640.152263  -4315.926259 -24101.627302   -123.122262
PE04  17976.116932 -16819.811752  16435.233456   -201.789499
PE05  -5538.333441 -23077.518766 -17694.092081    123.614475
PE07  -8760.336085  28262.342750    958.871997   -114.149844
PE08 -17723.689430  17077.391667 -16454.408953   6421.778128
PE09   8517.744624 -28324.544091   -964.935969   6555.750237
PE11  10469.451223 -17111.306222  21775.307888   5719.933069
PE12  26848.890413 -10433.053310   6863.093390   5961.236803
PE13 -10564.787831  17075.458261 -21734.972531    381.834952
PE14    926.585938 -18995.489706  15046.241614   6458.678438
PE15 -26629.076454  10729.813938  -7192.603295    922.729283
PE18   8668.187855  19510.794902 -24087.268626   5600.003000
PE19  15773.942851   6462.073771  24195.912574     -9.060160
PE21  16207.958422  24045.376519   5937.508016   -514.856593
PE24   -112.876375 -20984.248930 -20894.545246   6281.631083
PE25 -16186.986359 -24052.762305  -5969.326518   1921.325830
PE26  11546.538645  13749.763716 -23520.595791   5010.164277
PE27   -251.454491  20651.501110  21206.564444    548.022854
PE30 -16288.539922   5539.296237  24081.946044   5181.770707
PE31  16526.072601  -5152.452075 -24003.275853    930.492731
PE33  27174.160124   1891.197748 -11573.832925    847.928876
PE36 -11749.262059 -13453.334363  23615.481897    758.666993
PG01  17464.008949  13537.723638 -15130.119023   -146.801636
PG02   5874.709827 -14900.281985  21763.968683   -115.335280
PG03  13254.062176  21972.676063   6956.473415    177.727937
PG04      0.000000      0.000000      0.000000     85.951463
PG05   -535.421372 -23752.979686  11541.048717      0.830666
PG06  18961.524070  -8301.904998  16698.955314    295.195027
PG07  25885.229708   6634.136948   2454.726211     50.135092
PG08   -806.948666  19942.072660 -17381.217728   -129.363538
PG09  17269.686525   1387.760914  20086.866005    470.691828
PG10 -14217.237568   5252.660734 -21762.299694    134.130492
PG11  12171.587771  13008.022908 -20185.060235   -674.136044
PG12 -10250.279958 -24161.689532   4474.753437    275.677634
PG13   9361.547508 -21192.246485 -13076.827478    -78.032507
PG14 -18827.063683  18562.283404   -782.599110    -93.018171
PG15  -3976.565629 -18705.934546 -18528.389584   -331.893147
PG16  -1241.789100  23703.528017  11290.311706    -13.257396
PG17  20792.953624 -12903.261577  -9785.531555     -3.559243
PG18   7078.562078  15722.336315 -20717.321692     16.622011
PG19  19656.357266 -17902.707210  -1571.159473   -362.471142
PG20 -18172.946647  -4474.512286 -19008.875342    521.211387
PG21 -26261.375509  -3576.187395    744.648709   -267.574464
PG22  10495.299068  24413.967545   -532.763953   -624.639595
PG23  10898.405199  11483.211491  21609.932922   -200.267545
PG24 -13467.599739 -14761.756610 -17798.173001    -60.921230
PG25 -15925.669290 -16209.996195  13766.386986   -707.112328
PG26  -7038.318075  17729.202799  18402.433832     98.723033
PG27  -9769.209425  22438.270996 -10039.458804    -50.500370
PG28  14216.617075  -2632.965954 -21662.070715    762.174671
PG29 -14431.128731  -5567.458687  21569.872863    291.444479
PG30  25088.082828  -1112.105803  -8895.442289    -37.260436
PG31 -17101.464115   9491.283616  18176.714531     65.176316
PG32 -20023.771812  15261.683427  -8256.311477   -270.970974
PR01   8956.909765  11487.384226  20938.997301     38.058162
PR02  11076.894084 -10634.916776  20416.125996    349.771273
PR03   6242.394572 -23776.178372   6930.024856     -9.659491
PR04  -2525.586295 -22862.788817 -11036.015246    291.630895
PR05  -9257.707617  -9235.680198 -21901.317858     20.147455
PR07  -6018.131641  23924.441806  -6382.876516    -56.018034
PR08   2172.152714  23177.848893  10464.238326     19.511124
PR09 -15508.639515    511.680021  20238.858699     49.433230
PR10  -1940.173773  11683.479681  22581.538254     39.832236
PR11  13982.841433  17780.034716  11843.841895    -53.761311
PR13  16170.495048    415.307745 -19740.410143    -19.080067
PR14   2058.360696 -11856.064424 -22479.174709     35.021837
PR15 -13413.611853 -17656.024140 -12598.076706     99.336865
PR16 -21500.203037 -13114.135708   4416.828686    -11.664865
PR17  15421.977700 -13853.060229  14854.583757    196.865134
PR18  -1068.597155 -10910.384379  23057.282032     30.155485
PR19 -17136.327394  -2329.435973  18758.345210    -62.015400
PR20 -23977.094067   8374.259685   2106.322935   -365.871316
PR21 -15061.325638  13833.283098 -15255.639159    -26.036088
PR22   3773.995281   9800.384324 -23233.367946    -64.297666
PR23  20285.994262   -842.235375 -15442.657745    203.756952
PR24  23676.646853  -9495.040847   -600.473194   -176.129592
PR26 -23913.045805   7893.426655   4160.158385 999999.999999
EOF
